     2.10           N:  GPS NAV DATA                        RINEX VERSION / TYPE
Pinnacle 1.00                           06-NOV-08 23:49     PGM / RUN BY / DATE
build April 19, 2002                                        COMMENT
                                                            END OF HEADER       
 3 08 11  5  0  0  0.0  .306644011289D-03  .522959453519D-11  .000000000000D+00
     .130000000000D+02 -.587500000000D+01  .541879714322D-08 -.997087828116D+00
    -.134110450745D-06  .114141445374D-01  .753253698349D-05  .515370792389D+04
     .259200000000D+06  .176951289177D-06  .208201454470D+01  .169500708580D-06
     .925818122441D+00  .214000000000D+03  .871452509781D+00 -.846070956537D-08
     .217151902391D-09  .000000000000D+00  .150400000000D+04  .000000000000D+00
     .200000000000D+01  .000000000000D+00 -.419095158577D-08  .130000000000D+02
     .259199000000D+06                                                          
 3 08 11  5  1 59 44.0  .306681264192D-03  .522959453519D-11  .000000000000D+00
     .140000000000D+02 -.975000000000D+01  .544844123516D-08  .507215758887D-01
    -.407919287682D-06  .114135260228D-01  .783801078796D-05  .515370662308D+04
     .266384000000D+06  .931322574615D-08  .208195323673D+01  .171363353729D-06
     .925819300090D+00  .211093750000D+03  .871476446046D+00 -.854607026384D-08
     .206080012631D-09  .000000000000D+00  .150400000000D+04  .000000000000D+00
     .200000000000D+01  .000000000000D+00 -.419095158577D-08  .140000000000D+02
     .266399000000D+06                                                          
 3 08 11  5  2  0  0.0  .306681729853D-03  .522959453519D-11  .000000000000D+00
     .620000000000D+02 -.975000000000D+01  .544879839290D-08  .530556426662D-01
    -.407919287682D-06  .114135225303D-01  .783801078796D-05  .515370663261D+04
     .266400000000D+06  .931322574615D-08  .208195309190D+01  .171363353729D-06
     .925819314719D+00  .211093750000D+03  .871476032040D+00 -.854642742158D-08
     .205365697163D-09  .000000000000D+00  .150400000000D+04  .000000000000D+00
     .200000000000D+01  .000000000000D+00 -.419095158577D-08  .620000000000D+02
     .266399000000D+06                                                          
 3 08 11  5  3 59 44.0  .306719448417D-03  .522959453519D-11  .000000000000D+00
     .150000000000D+02 -.978125000000D+01  .539236747089D-08  .110079293505D+01
    -.420957803726D-06  .114148323191D-01  .853464007378D-05  .515370985985D+04
     .273584000000D+06 -.109896063805D-06  .208189229741D+01  .987201929092D-07
     .925820439703D+00  .198937500000D+03  .871571314821D+00 -.850785438628D-08
     .126433837905D-09  .000000000000D+00  .150400000000D+04  .000000000000D+00
     .200000000000D+01  .000000000000D+00 -.419095158577D-08  .150000000000D+02
     .273599000000D+06                                                          
 6 08 11  5  0  0  0.0  .149037688971D-03 -.613908923697D-11  .000000000000D+00
     .260000000000D+02 -.975000000000D+01  .522236038942D-08  .157959831867D+01
    -.629574060440D-06  .561766768806D-02  .773370265961D-05  .515371205521D+04
     .259200000000D+06  .335276126862D-07  .214795491881D+01 -.199303030968D-06
     .933389983074D+00  .216281250000D+03 -.153812682646D+01 -.827713048999D-08
     .221794952936D-09  .000000000000D+00  .150400000000D+04  .000000000000D+00
     .200000000000D+01  .000000000000D+00 -.465661287308D-08  .260000000000D+02
     .259199000000D+06                                                          
 6 08 11  5  2  0  0.0  .148992985487D-03 -.613908923697D-11  .000000000000D+00
     .270000000000D+02 -.928125000000D+01  .518521598506D-08  .262978422139D+01
    -.493600964546D-06  .561756594107D-02  .775232911110D-05  .515371194839D+04
     .266400000000D+06  .108033418655D-06  .214789626164D+01 -.558793544769D-07
     .933391896570D+00  .213937500000D+03 -.153815036481D+01 -.815319675623D-08
     .183936233111D-09  .000000000000D+00  .150400000000D+04  .000000000000D+00
     .200000000000D+01  .000000000000D+00 -.465661287308D-08  .270000000000D+02
     .266399000000D+06                                                          
 6 08 11  5  4  0  0.0  .148948747665D-03 -.613908923697D-11  .000000000000D+00
     .280000000000D+02 -.681250000000D+01  .513878547961D-08 -.260327366907D+01
    -.361353158951D-06  .561668316368D-02  .801123678684D-05  .515371359062D+04
     .273600000000D+06  .104308128357D-06  .214783710124D+01  .521540641785D-07
     .933393551131D+00  .207281250000D+03 -.153811611644D+01 -.815141096756D-08
     .269296931584D-09  .000000000000D+00  .150400000000D+04  .000000000000D+00
     .200000000000D+01  .000000000000D+00 -.465661287308D-08  .280000000000D+02
     .273599000000D+06                                                          
 7 08 11  5  2  0  0.0  .229398719966D-04  .341060513165D-12  .000000000000D+00
     .690000000000D+02 -.493437500000D+02  .438875423780D-08 -.133844250094D+01
    -.263750553131D-05  .231622101273D-02  .504404306412D-05  .515369109154D+04
     .266400000000D+06 -.260770320892D-07  .966599055873D-01 -.353902578354D-07
     .964896014421D+00  .284843750000D+03  .282136278700D+01 -.810462330438D-08
    -.214294640518D-11  .000000000000D+00  .150400000000D+04  .000000000000D+00
     .200000000000D+01  .000000000000D+00 -.107102096081D-07  .690000000000D+02
     .266399000000D+06                                                          
 7 08 11  5  3 59 44.0  .229422003031D-04  .341060513165D-12  .000000000000D+00
     .600000000000D+01 -.415937500000D+02  .448411535283D-08 -.291164813532D+00
    -.230036675930D-05  .231517874636D-02  .461749732494D-05  .515368795395D+04
     .273584000000D+06  .800937414169D-07  .966019857347D-01 -.316649675369D-07
     .964895603341D+00  .293906250000D+03  .282192198013D+01 -.815605401810D-08
    -.760745973838D-10  .000000000000D+00  .150400000000D+04  .000000000000D+00
     .200000000000D+01  .000000000000D+00 -.107102096081D-07  .600000000000D+01
     .273599000000D+06                                                          
 7 08 11  5  4  0  0.0  .229422003031D-04  .341060513165D-12  .000000000000D+00
     .720000000000D+02 -.415937500000D+02  .448411535283D-08 -.288830707255D+00
    -.230036675930D-05  .231517828070D-02  .461563467979D-05  .515368795395D+04
     .273600000000D+06  .800937414169D-07  .966018438317D-01 -.316649675369D-07
     .964895623821D+00  .293906250000D+03  .282192151492D+01 -.815605401810D-08
    -.753602819154D-10  .000000000000D+00  .150400000000D+04  .000000000000D+00
     .200000000000D+01  .000000000000D+00 -.107102096081D-07  .720000000000D+02
     .273599000000D+06                                                          
13 08 11  5  0  0  0.0  .276031438261D-03  .102318153949D-11  .000000000000D+00
     .230000000000D+02  .358437500000D+02  .379087219076D-08 -.326208890310D-01
     .177882611752D-05  .361360854004D-02  .489503145218D-05  .515355783272D+04
     .259200000000D+06 -.521540641785D-07 -.898618036854D+00  .353902578354D-07
     .995336731267D+00  .303312500000D+03  .155152333053D+01 -.787747098543D-08
    -.196436753808D-10  .000000000000D+00  .150400000000D+04  .000000000000D+00
     .200000000000D+01  .000000000000D+00 -.111758708954D-07  .230000000000D+02
     .259199000000D+06                                                          
13 08 11  5  2  0  0.0  .276038888842D-03  .102318153949D-11  .000000000000D+00
     .280000000000D+02  .342500000000D+02  .374337021211D-08  .101760508155D+01
     .169686973095D-05  .361441471614D-02  .520795583725D-05  .515355924034D+04
     .266400000000D+06 -.109896063805D-06 -.898674884388D+00 -.149011611938D-07
     .995336740045D+00  .296312500000D+03  .155154295412D+01 -.784032658107D-08
     .107147320259D-10  .000000000000D+00  .150400000000D+04  .000000000000D+00
     .200000000000D+01  .000000000000D+00 -.111758708954D-07  .280000000000D+02
     .266399000000D+06                                                          
13 08 11  5  4  0  0.0  .276045873761D-03  .102318153949D-11  .000000000000D+00
     .570000000000D+02  .389375000000D+02  .376729978030D-08  .206824396662D+01
     .192411243916D-05  .361412437633D-02  .558048486710D-05  .515355655289D+04
     .273600000000D+06 -.223517417908D-07 -.898731025332D+00 -.745058059692D-07
     .995337314972D+00  .286437500000D+03  .155115061412D+01 -.774675125471D-08
     .257153568621D-10  .000000000000D+00  .150400000000D+04  .000000000000D+00
     .200000000000D+01  .000000000000D+00 -.111758708954D-07  .570000000000D+02
     .273599000000D+06                                                          
16 08 11  4 23 59 44.0  .973036512733D-04 -.238742359215D-11  .000000000000D+00
     .130000000000D+02 -.620625000000D+02  .423803367397D-08  .149247711294D+01
    -.312551856041D-05  .474368291907D-02  .793859362602D-05  .515370307732D+04
     .259184000000D+06  .428408384323D-07  .116366577622D+01  .763684511185D-07
     .966479190218D+00  .227656250000D+03 -.386331704426D+00 -.782889753358D-08
     .113219001740D-09  .000000000000D+00  .150400000000D+04  .000000000000D+00
     .200000000000D+01  .000000000000D+00 -.977888703346D-08  .130000000000D+02
     .259199000000D+06                                                          
16 08 11  5  2  0  0.0  .972868874669D-04 -.238742359215D-11  .000000000000D+00
     .140000000000D+02 -.692187500000D+02  .424660545959D-08  .254484191511D+01
    -.348873436451D-05  .474291213322D-02  .838562846184D-05  .515370475388D+04
     .266400000000D+06  .186264514923D-08  .116360942754D+01  .465661287308D-07
     .966479885104D+00  .222250000000D+03 -.386201868984D+00 -.781711132835D-08
     .932181686252D-10  .000000000000D+00  .150400000000D+04  .000000000000D+00
     .200000000000D+01  .000000000000D+00 -.977888703346D-08  .140000000000D+02
     .266399000000D+06                                                          
